JY1SAT (JO-97)          
1 43803U 18099AX  26068.68634132  .00017774  00000+0  60804-3 0  9996
2 43803  97.4249 131.3625 0004723 256.6795 103.3919 15.30302628398390
STARLINK-34686          
1 65087U 25167K   26068.28772293  .00032212  00000+0  10950-2 0  9995
2 65087  53.1619  28.8582 0001133  84.6133 275.4997 15.30199942 33416
