[{"OBJECT_NAME":"JY1SAT (JO-97)","OBJECT_ID":"2018-099AX","EPOCH":"2026-03-09T16:28:19.890048","MEAN_MOTION":15.30302629,"ECCENTRICITY":0.00047232,"INCLINATION":97.4249,"RA_OF_ASC_NODE":131.3625,"ARG_OF_PERICENTER":256.6795,"MEAN_ANOMALY":103.3919,"EPHEMERIS_TYPE":0,"CLASSIFICATION_TYPE":"U","NORAD_CAT_ID":43803,"ELEMENT_SET_NO":999,"REV_AT_EPOCH":39839,"BSTAR":0.00060804308,"MEAN_MOTION_DOT":0.00017774,"MEAN_MOTION_DDOT":0},{"OBJECT_NAME":"STARLINK-34686","OBJECT_ID":"2025-167K","EPOCH":"2026-03-09T06:54:19.261152","MEAN_MOTION":15.30199942,"ECCENTRICITY":0.00011335,"INCLINATION":53.1619,"RA_OF_ASC_NODE":28.8582,"ARG_OF_PERICENTER":84.6133,"MEAN_ANOMALY":275.4997,"EPHEMERIS_TYPE":0,"CLASSIFICATION_TYPE":"U","NORAD_CAT_ID":65087,"ELEMENT_SET_NO":999,"REV_AT_EPOCH":3341,"BSTAR":0.0010949998,"MEAN_MOTION_DOT":0.00032212,"MEAN_MOTION_DDOT":0}]
